[{"OBJECT_NAME":"KOSEN-1","OBJECT_ID":"2021-102H","EPOCH":"2026-03-09T22:29:54.100608","MEAN_MOTION":15.25323573,"ECCENTRICITY":0.00138659,"INCLINATION":97.3334,"RA_OF_ASC_NODE":113.0569,"ARG_OF_PERICENTER":191.9191,"MEAN_ANOMALY":168.1721,"EPHEMERIS_TYPE":0,"CLASSIFICATION_TYPE":"U","NORAD_CAT_ID":49402,"ELEMENT_SET_NO":999,"REV_AT_EPOCH":23888,"BSTAR":0.00040411561,"MEAN_MOTION_DOT":0.00010142,"MEAN_MOTION_DDOT":0},{"OBJECT_NAME":"STARLINK-31169","OBJECT_ID":"2024-012Y","EPOCH":"2026-03-09T06:56:10.111488","MEAN_MOTION":15.27572273,"ECCENTRICITY":0.00016039,"INCLINATION":43.0027,"RA_OF_ASC_NODE":167.5933,"ARG_OF_PERICENTER":276.3812,"MEAN_ANOMALY":83.6857,"EPHEMERIS_TYPE":0,"CLASSIFICATION_TYPE":"U","NORAD_CAT_ID":58809,"ELEMENT_SET_NO":999,"REV_AT_EPOCH":12117,"BSTAR":8.5431733e-5,"MEAN_MOTION_DOT":2.089e-5,"MEAN_MOTION_DDOT":0}]
